[{"OBJECT_NAME":"EOSSAT-1","OBJECT_ID":"2023-001AW","EPOCH":"2026-03-09T17:40:07.010400","MEAN_MOTION":15.32339828,"ECCENTRICITY":0.00112629,"INCLINATION":97.3357,"RA_OF_ASC_NODE":130.2294,"ARG_OF_PERICENTER":110.3168,"MEAN_ANOMALY":249.9285,"EPHEMERIS_TYPE":0,"CLASSIFICATION_TYPE":"U","NORAD_CAT_ID":55053,"ELEMENT_SET_NO":999,"REV_AT_EPOCH":17668,"BSTAR":0.00024844399,"MEAN_MOTION_DOT":7.695e-5,"MEAN_MOTION_DDOT":0},{"OBJECT_NAME":"STARLINK-30426","OBJECT_ID":"2023-141J","EPOCH":"2026-03-09T21:10:59.562912","MEAN_MOTION":15.30189936,"ECCENTRICITY":0.00014368,"INCLINATION":53.1598,"RA_OF_ASC_NODE":283.2593,"ARG_OF_PERICENTER":117.1697,"MEAN_ANOMALY":242.9451,"EPHEMERIS_TYPE":0,"CLASSIFICATION_TYPE":"U","NORAD_CAT_ID":57848,"ELEMENT_SET_NO":999,"REV_AT_EPOCH":14035,"BSTAR":5.1744161e-5,"MEAN_MOTION_DOT":1.173e-5,"MEAN_MOTION_DDOT":0}]
